OBJECT_NAME,OBJECT_ID,EPOCH,MEAN_MOTION,ECCENTRICITY,INCLINATION,RA_OF_ASC_NODE,ARG_OF_PERICENTER,MEAN_ANOMALY,EPHEMERIS_TYPE,CLASSIFICATION_TYPE,NORAD_CAT_ID,ELEMENT_SET_NO,REV_AT_EPOCH,BSTAR,MEAN_MOTION_DOT,MEAN_MOTION_DDOT
IONOSFERA-M 2,2024-199B,2026-07-18T14:14:22.435008,14.22762897,.00006241,98.7129,72.3383,129.4757,230.6476,0,U,61736,999,13529,.21226823E-4,.4E-7,0
PRSC-EO1,2025-012A,2026-07-18T15:23:53.172096,15.17644713,.00070057,97.4210,271.4843,136.7484,223.4301,0,U,62725,999,8296,.15643425E-3,.3083E-4,0
BIOMASS,2025-090A,2026-07-18T06:19:42.767616,14.67534286,.00014242,98.0750,26.1262,93.3429,266.7939,0,U,63772,999,6524,.4911293E-4,.23E-5,0
GOSAT-GW (IBUKI GW),2025-141A,2026-07-18T14:55:23.699712,14.67554283,.0001385,98.0564,136.4281,85.4234,274.7129,0,U,64694,999,5645,-.13696578E-4,-.125E-5,0
IONOSFERA-M 3,2025-155A,2026-07-18T15:20:22.008768,14.21491118,.00023796,98.6043,160.7556,107.3954,252.7484,0,U,64876,999,5087,.21962732E-4,.5E-7,0
IONOSFERA-M 4,2025-155B,2026-07-18T14:29:06.074592,14.21493589,.00018731,98.6042,160.6380,96.3191,263.8200,0,U,64877,999,5086,.25490879E-4,.13E-6,0
MICROCARB,2025-156A,2026-07-18T11:19:12.523872,14.72887174,.00178867,98.0074,276.1277,160.5174,199.6721,0,U,64899,999,5257,.46324619E-4,.247E-5,0
CO3D 3,2025-156B,2026-07-18T14:02:33.198144,15.20206689,.00017663,97.4332,277.8271,93.9671,266.1766,0,U,64900,999,5430,.94907512E-4,.1988E-4,0
CO3D 4,2025-156C,2026-07-18T10:53:12.231456,15.20204330,.00018585,97.4336,277.6973,149.6036,210.5307,0,U,64901,999,5428,.32054538E-4,.626E-5,0
CO3D 2,2025-156D,2026-07-18T13:14:44.843424,15.20208151,.00012005,97.4332,277.6930,92.9064,267.2308,0,U,64902,999,5429,.98296741E-4,.2061E-4,0
CO3D 1,2025-156E,2026-07-18T13:14:58.028064,15.20193595,.00013141,97.4332,277.6932,101.5570,258.5813,0,U,64903,999,5429,.98939924E-4,.2074E-4,0
PRSC-S1,2025-164A,2026-07-18T03:44:56.843808,15.06650000,.00071539,41.1302,113.3644,216.2275,143.8055,0,U,65055,999,5310,.17326218E-3,.2438E-4,0
SENTINEL-6B,2025-264A,2026-07-18T15:05:03.107616,12.80930242,.00078317,66.0411,69.8755,268.5053,91.5066,0,U,66514,999,3119,.38921915E-4,-.52E-6,0
CAS500-3,2025-274F,2026-07-18T06:36:25.853472,14.88387771,.00060273,97.7435,126.6194,29.5530,330.6026,0,U,66655,999,3477,.6802614E-4,.577E-5,0
CSG-3,2026-001A,2026-07-18T01:13:58.520064,14.82153018,.00015297,97.8897,22.2074,93.2524,266.8864,0,U,67304,999,2903,.19646123E-4,.104E-5,0
PRSC-E03,2026-092A,2026-07-18T12:50:06.933408,15.06817220,.00050491,38.0008,264.8096,271.7351,88.2832,0,U,68835,999,1268,.75939404E-4,.1043E-4,0
CAS500-2,2026-100AK,2026-07-18T11:22:14.153952,15.19745977,.00079811,97.3853,96.7292,239.6975,120.3470,0,U,69013,999,1156,.14294841E-3,.299E-4,0
