IONOSFERA-M 2           
1 61736U 24199B   26199.59331522  .00000004  00000+0  21227-4 0  9996
2 61736  98.7129  72.3383 0000624 129.4757 230.6476 14.22762897135290
PRSC-EO1                
1 62725U 25012A   26199.64158764  .00003083  00000+0  15643-3 0  9995
2 62725  97.4210 271.4843 0007005 136.7484 223.4301 15.17644713 82960
BIOMASS                 
1 63772U 25090A   26199.26368944  .00000230  00000+0  49113-4 0  9996
2 63772  98.0750  26.1262 0001424  93.3429 266.7939 14.67534286 65241
GOSAT-GW (IBUKI GW)     
1 64694U 25141A   26199.62180208 -.00000125  00000+0 -13697-4 0  9995
2 64694  98.0564 136.4281 0001385  85.4234 274.7129 14.67554283 56458
IONOSFERA-M 3           
1 64876U 25155A   26199.63914362  .00000005  00000+0  21963-4 0  9999
2 64876  98.6043 160.7556 0002379 107.3954 252.7484 14.21491118 50877
IONOSFERA-M 4           
1 64877U 25155B   26199.60354253  .00000013  00000+0  25491-4 0  9993
2 64877  98.6042 160.6380 0001873  96.3191 263.8200 14.21493589 50861
MICROCARB               
1 64899U 25156A   26199.47167273  .00000247  00000+0  46325-4 0  9995
2 64899  98.0074 276.1277 0017886 160.5174 199.6721 14.72887174 52575
CO3D 3                  
1 64900U 25156B   26199.58510646  .00001988  00000+0  94908-4 0  9999
2 64900  97.4332 277.8271 0001766  93.9671 266.1766 15.20206689 54303
CO3D 4                  
1 64901U 25156C   26199.45361379  .00000626  00000+0  32055-4 0  9996
2 64901  97.4336 277.6973 0001858 149.6036 210.5307 15.20204330 54283
CO3D 2                  
1 64902U 25156D   26199.55190791  .00002061  00000+0  98297-4 0  9991
2 64902  97.4332 277.6930 0001200  92.9064 267.2308 15.20208151 54291
CO3D 1                  
1 64903U 25156E   26199.55206051  .00002074  00000+0  98940-4 0  9998
2 64903  97.4332 277.6932 0001314 101.5570 258.5813 15.20193595 54298
PRSC-S1                 
1 65055U 25164A   26199.15621347  .00002438  00000+0  17326-3 0  9993
2 65055  41.1302 113.3644 0007153 216.2275 143.8055 15.06650000 53105
SENTINEL-6B             
1 66514U 25264A   26199.62850819 -.00000052  00000+0  38922-4 0  9992
2 66514  66.0411  69.8755 0007831 268.5053  91.5066 12.80930242 31192
CAS500-3                
1 66655U 25274F   26199.27529923  .00000577  00000+0  68026-4 0  9998
2 66655  97.7435 126.6194 0006027  29.5530 330.6026 14.88387771 34778
CSG-3                   
1 67304U 26001A   26199.05137176  .00000104  00000+0  19646-4 0  9990
2 67304  97.8897  22.2074 0001529  93.2524 266.8864 14.82153018 29036
PRSC-E03                
1 68835U 26092A   26199.53480247  .00001043  00000+0  75939-4 0  9993
2 68835  38.0008 264.8096 0005049 271.7351  88.2832 15.06817220 12680
CAS500-2                
1 69013U 26100AK  26199.47377493  .00002990  00000+0  14295-3 0  9992
2 69013  97.3853  96.7292 0007981 239.6975 120.3470 15.19745977 11562
